[{"OBJECT_NAME":"SMOS","OBJECT_ID":"2009-059A","EPOCH":"2026-03-03T11:39:45.840672","MEAN_MOTION":14.39754772,"ECCENTRICITY":0.00010408,"INCLINATION":98.4425,"RA_OF_ASC_NODE":251.3531,"ARG_OF_PERICENTER":80.44,"MEAN_ANOMALY":279.6906,"EPHEMERIS_TYPE":0,"CLASSIFICATION_TYPE":"U","NORAD_CAT_ID":36036,"ELEMENT_SET_NO":999,"REV_AT_EPOCH":85824,"BSTAR":0.0001445393,"MEAN_MOTION_DOT":4.09e-6,"MEAN_MOTION_DDOT":0},{"OBJECT_NAME":"YAOGAN-7","OBJECT_ID":"2009-069A","EPOCH":"2026-03-03T16:14:07.192032","MEAN_MOTION":14.77880563,"ECCENTRICITY":0.0025222,"INCLINATION":98.0222,"RA_OF_ASC_NODE":309.1165,"ARG_OF_PERICENTER":22.4902,"MEAN_ANOMALY":337.7408,"EPHEMERIS_TYPE":0,"CLASSIFICATION_TYPE":"U","NORAD_CAT_ID":36110,"ELEMENT_SET_NO":999,"REV_AT_EPOCH":87404,"BSTAR":0.00014675,"MEAN_MOTION_DOT":1.008e-5,"MEAN_MOTION_DDOT":0},{"OBJECT_NAME":"TANDEM-X","OBJECT_ID":"2010-030A","EPOCH":"2026-03-03T12:56:08.813760","MEAN_MOTION":15.19150658,"ECCENTRICITY":0.0001885,"INCLINATION":97.4468,"RA_OF_ASC_NODE":71.7501,"ARG_OF_PERICENTER":90.0602,"MEAN_ANOMALY":270.0849,"EPHEMERIS_TYPE":0,"CLASSIFICATION_TYPE":"U","NORAD_CAT_ID":36605,"ELEMENT_SET_NO":999,"REV_AT_EPOCH":87060,"BSTAR":6.3499e-5,"MEAN_MOTION_DOT":1.267e-5,"MEAN_MOTION_DDOT":0},{"OBJECT_NAME":"CARTOSAT-2B","OBJECT_ID":"2010-035A","EPOCH":"2026-03-03T20:12:13.419936","MEAN_MOTION":14.78665187,"ECCENTRICITY":0.0011467,"INCLINATION":97.8562,"RA_OF_ASC_NODE":114.2511,"ARG_OF_PERICENTER":167.3223,"MEAN_ANOMALY":192.8279,"EPHEMERIS_TYPE":0,"CLASSIFICATION_TYPE":"U","NORAD_CAT_ID":36795,"ELEMENT_SET_NO":999,"REV_AT_EPOCH":84428,"BSTAR":9.516e-5,"MEAN_MOTION_DOT":6.47e-6,"MEAN_MOTION_DDOT":0},{"OBJECT_NAME":"YAOGAN-10","OBJECT_ID":"2010-038A","EPOCH":"2026-03-03T20:33:36.252576","MEAN_MOTION":14.84986054,"ECCENTRICITY":0.0001722,"INCLINATION":97.9085,"RA_OF_ASC_NODE":87.073,"ARG_OF_PERICENTER":90.1401,"MEAN_ANOMALY":34.1126,"EPHEMERIS_TYPE":0,"CLASSIFICATION_TYPE":"U","NORAD_CAT_ID":36834,"ELEMENT_SET_NO":999,"REV_AT_EPOCH":84157,"BSTAR":0.00030314,"MEAN_MOTION_DOT":2.531e-5,"MEAN_MOTION_DDOT":0},{"OBJECT_NAME":"COSMO-SKYMED 4","OBJECT_ID":"2010-060A","EPOCH":"2026-03-03T20:34:29.085312","MEAN_MOTION":14.82152513,"ECCENTRICITY":0.0001356,"INCLINATION":97.8851,"RA_OF_ASC_NODE":247.9781,"ARG_OF_PERICENTER":84.1485,"MEAN_ANOMALY":275.9883,"EPHEMERIS_TYPE":0,"CLASSIFICATION_TYPE":"U","NORAD_CAT_ID":37216,"ELEMENT_SET_NO":999,"REV_AT_EPOCH":82896,"BSTAR":9.5848e-5,"MEAN_MOTION_DOT":7.11e-6,"MEAN_MOTION_DDOT":0},{"OBJECT_NAME":"RESOURCESAT-2","OBJECT_ID":"2011-015A","EPOCH":"2026-03-03T17:30:00.839232","MEAN_MOTION":14.21490377,"ECCENTRICITY":0.00062,"INCLINATION":98.7733,"RA_OF_ASC_NODE":130.8539,"ARG_OF_PERICENTER":154.4165,"MEAN_ANOMALY":205.732,"EPHEMERIS_TYPE":0,"CLASSIFICATION_TYPE":"U","NORAD_CAT_ID":37387,"ELEMENT_SET_NO":999,"REV_AT_EPOCH":77119,"BSTAR":-7.5399e-5,"MEAN_MOTION_DOT":-2.09e-6,"MEAN_MOTION_DDOT":0},{"OBJECT_NAME":"HAIYANG-2A","OBJECT_ID":"2011-043A","EPOCH":"2026-03-03T20:02:25.783296","MEAN_MOTION":13.78438023,"ECCENTRICITY":9.11e-5,"INCLINATION":99.3409,"RA_OF_ASC_NODE":67.5283,"ARG_OF_PERICENTER":288.121,"MEAN_ANOMALY":71.9842,"EPHEMERIS_TYPE":0,"CLASSIFICATION_TYPE":"U","NORAD_CAT_ID":37781,"ELEMENT_SET_NO":999,"REV_AT_EPOCH":73216,"BSTAR":-3.7934e-5,"MEAN_MOTION_DOT":-8.2e-7,"MEAN_MOTION_DDOT":0},{"OBJECT_NAME":"RASAT","OBJECT_ID":"2011-044D","EPOCH":"2026-03-03T21:04:33.563136","MEAN_MOTION":14.68045511,"ECCENTRICITY":0.0020914,"INCLINATION":98.0567,"RA_OF_ASC_NODE":155.9087,"ARG_OF_PERICENTER":162.8556,"MEAN_ANOMALY":264.0498,"EPHEMERIS_TYPE":0,"CLASSIFICATION_TYPE":"U","NORAD_CAT_ID":37791,"ELEMENT_SET_NO":999,"REV_AT_EPOCH":77773,"BSTAR":0.00013161,"MEAN_MOTION_DOT":7.08e-6,"MEAN_MOTION_DDOT":0},{"OBJECT_NAME":"SRMSAT","OBJECT_ID":"2011-058D","EPOCH":"2026-03-03T04:52:07.731264","MEAN_MOTION":14.11544671,"ECCENTRICITY":0.00118867,"INCLINATION":19.9732,"RA_OF_ASC_NODE":340.9649,"ARG_OF_PERICENTER":118.1185,"MEAN_ANOMALY":34.7703,"EPHEMERIS_TYPE":0,"CLASSIFICATION_TYPE":"U","NORAD_CAT_ID":37841,"ELEMENT_SET_NO":999,"REV_AT_EPOCH":74282,"BSTAR":0.0001115628,"MEAN_MOTION_DOT":4.7e-6,"MEAN_MOTION_DDOT":0},{"OBJECT_NAME":"PLEIADES 1A","OBJECT_ID":"2011-076F","EPOCH":"2026-03-03T20:04:11.066016","MEAN_MOTION":14.58533495,"ECCENTRICITY":0.0001651,"INCLINATION":98.2061,"RA_OF_ASC_NODE":139.3235,"ARG_OF_PERICENTER":92.188,"MEAN_ANOMALY":45.0467,"EPHEMERIS_TYPE":0,"CLASSIFICATION_TYPE":"U","NORAD_CAT_ID":38012,"ELEMENT_SET_NO":999,"REV_AT_EPOCH":75663,"BSTAR":0.00010503,"MEAN_MOTION_DOT":4.42e-6,"MEAN_MOTION_DDOT":0},{"OBJECT_NAME":"ZIYUAN 1-02C (ZY 1-02C)","OBJECT_ID":"2011-079A","EPOCH":"2026-03-03T21:22:31.490400","MEAN_MOTION":14.38115874,"ECCENTRICITY":0.0005256,"INCLINATION":98.4191,"RA_OF_ASC_NODE":132.3601,"ARG_OF_PERICENTER":261.1213,"MEAN_ANOMALY":210.3002,"EPHEMERIS_TYPE":0,"CLASSIFICATION_TYPE":"U","NORAD_CAT_ID":38038,"ELEMENT_SET_NO":999,"REV_AT_EPOCH":74407,"BSTAR":0.00017207,"MEAN_MOTION_DOT":4.79e-6,"MEAN_MOTION_DDOT":0},{"OBJECT_NAME":"ARIRANG-3 (KOMPSAT-3)","OBJECT_ID":"2012-025B","EPOCH":"2026-03-03T20:25:49.310688","MEAN_MOTION":14.62093074,"ECCENTRICITY":0.0006776,"INCLINATION":98.1053,"RA_OF_ASC_NODE":22.2092,"ARG_OF_PERICENTER":85.4015,"MEAN_ANOMALY":274.796,"EPHEMERIS_TYPE":0,"CLASSIFICATION_TYPE":"U","NORAD_CAT_ID":38338,"ELEMENT_SET_NO":999,"REV_AT_EPOCH":73595,"BSTAR":0.00018981,"MEAN_MOTION_DOT":9.07e-6,"MEAN_MOTION_DDOT":0},{"OBJECT_NAME":"EXACTVIEW-1 (ADS-1B)","OBJECT_ID":"2012-039C","EPOCH":"2026-03-03T18:37:00.105888","MEAN_MOTION":14.24948095,"ECCENTRICITY":0.0011864,"INCLINATION":98.9635,"RA_OF_ASC_NODE":177.8665,"ARG_OF_PERICENTER":113.9937,"MEAN_ANOMALY":246.2485,"EPHEMERIS_TYPE":0,"CLASSIFICATION_TYPE":"U","NORAD_CAT_ID":38709,"ELEMENT_SET_NO":999,"REV_AT_EPOCH":70769,"BSTAR":0.0001011,"MEAN_MOTION_DOT":1.9e-6,"MEAN_MOTION_DDOT":0},{"OBJECT_NAME":"SPOT 6","OBJECT_ID":"2012-047A","EPOCH":"2026-03-03T19:48:15.114816","MEAN_MOTION":14.58535453,"ECCENTRICITY":0.0001439,"INCLINATION":98.2238,"RA_OF_ASC_NODE":131.3183,"ARG_OF_PERICENTER":93.6686,"MEAN_ANOMALY":266.4678,"EPHEMERIS_TYPE":0,"CLASSIFICATION_TYPE":"U","NORAD_CAT_ID":38755,"ELEMENT_SET_NO":999,"REV_AT_EPOCH":71769,"BSTAR":6.8521e-5,"MEAN_MOTION_DOT":2.72e-6,"MEAN_MOTION_DDOT":0},{"OBJECT_NAME":"PLEIADES 1B","OBJECT_ID":"2012-068A","EPOCH":"2026-03-03T20:15:46.992096","MEAN_MOTION":14.585769,"ECCENTRICITY":0.0001618,"INCLINATION":98.2032,"RA_OF_ASC_NODE":139.3173,"ARG_OF_PERICENTER":88.9685,"MEAN_ANOMALY":271.1699,"EPHEMERIS_TYPE":0,"CLASSIFICATION_TYPE":"U","NORAD_CAT_ID":39019,"ELEMENT_SET_NO":999,"REV_AT_EPOCH":70549,"BSTAR":7.4665e-5,"MEAN_MOTION_DOT":3.01e-6,"MEAN_MOTION_DDOT":0},{"OBJECT_NAME":"GOKTURK 2","OBJECT_ID":"2012-073A","EPOCH":"2026-03-03T19:56:48.159744","MEAN_MOTION":14.75424417,"ECCENTRICITY":0.000127,"INCLINATION":97.6884,"RA_OF_ASC_NODE":265.4985,"ARG_OF_PERICENTER":54.4814,"MEAN_ANOMALY":305.6514,"EPHEMERIS_TYPE":0,"CLASSIFICATION_TYPE":"U","NORAD_CAT_ID":39030,"ELEMENT_SET_NO":999,"REV_AT_EPOCH":70897,"BSTAR":9.4297e-5,"MEAN_MOTION_DOT":5.93e-6,"MEAN_MOTION_DDOT":0}]
