SMOS                    
1 36036U 09059A   26062.48594723  .00000409  00000+0  14454-3 0  9992
2 36036  98.4425 251.3531 0001040  80.4400 279.6906 14.39754772858248
YAOGAN-7                
1 36110U 09069A   26062.67647213  .00001008  00000+0  14675-3 0  9991
2 36110  98.0222 309.1165 0025222  22.4902 337.7408 14.77880563874047
TANDEM-X                
1 36605U 10030A   26062.53899090  .00001267  00000+0  63499-4 0  9993
2 36605  97.4468  71.7501 0001885  90.0602 270.0849 15.19150658870602
CARTOSAT-2B             
1 36795U 10035A   26062.84182199  .00000647  00000+0  95160-4 0  9998
2 36795  97.8562 114.2511 0011467 167.3223 192.8279 14.78665187844284
YAOGAN-10               
1 36834U 10038A   26062.85666959  .00002531  00000+0  30314-3 0  9990
2 36834  97.9085  87.0730 0001722  90.1401  34.1126 14.84986054841577
COSMO-SKYMED 4          
1 37216U 10060A   26062.85728108  .00000711  00000+0  95848-4 0  9997
2 37216  97.8851 247.9781 0001356  84.1485 275.9883 14.82152513828969
RESOURCESAT-2           
1 37387U 11015A   26062.72917638 -.00000209  00000+0 -75399-4 0  9994
2 37387  98.7733 130.8539 0006200 154.4165 205.7320 14.21490377771192
HAIYANG-2A              
1 37781U 11043A   26062.83502064 -.00000082  00000+0 -37934-4 0  9990
2 37781  99.3409  67.5283 0000911 288.1210  71.9842 13.78438023732165
RASAT                   
1 37791U 11044D   26062.87816624  .00000708  00000+0  13161-3 0  9994
2 37791  98.0567 155.9087 0020914 162.8556 264.0498 14.68045511777737
SRMSAT                  
1 37841U 11058D   26062.20286726  .00000470  00000+0  11156-3 0  9994
2 37841  19.9732 340.9649 0011886 118.1185  34.7703 14.11544671742821
PLEIADES 1A             
1 38012U 11076F   26062.83623919  .00000442  00000+0  10503-3 0  9997
2 38012  98.2061 139.3235 0001651  92.1880  45.0467 14.58533495756639
ZIYUAN 1-02C (ZY 1-02C) 
1 38038U 11079A   26062.89064225  .00000479  00000+0  17207-3 0  9991
2 38038  98.4191 132.3601 0005256 261.1213 210.3002 14.38115874744078
ARIRANG-3 (KOMPSAT-3)   
1 38338U 12025B   26062.85126517  .00000907  00000+0  18981-3 0  9991
2 38338  98.1053  22.2092 0006776  85.4015 274.7960 14.62093074735959
EXACTVIEW-1 (ADS-1B)    
1 38709U 12039C   26062.77569567  .00000190  00000+0  10110-3 0  9995
2 38709  98.9635 177.8665 0011864 113.9937 246.2485 14.24948095707698
SPOT 6                  
1 38755U 12047A   26062.82517494  .00000272  00000+0  68521-4 0  9994
2 38755  98.2238 131.3183 0001439  93.6686 266.4678 14.58535453717699
PLEIADES 1B             
1 39019U 12068A   26062.84429389  .00000301  00000+0  74665-4 0  9997
2 39019  98.2032 139.3173 0001618  88.9685 271.1699 14.58576900705490
GOKTURK 2               
1 39030U 12073A   26062.83111296  .00000593  00000+0  94297-4 0  9996
2 39030  97.6884 265.4985 0001270  54.4814 305.6514 14.75424417708978
